NORAD_CAT_ID,OBJECT_NAME,OBJECT_TYPE,EPOCH,MEAN_MOTION,ECCENTRICITY,INCLINATION,RA_OF_ASC_NODE,ARG_OF_PERICENTER,MEAN_ANOMALY,BSTAR,MEAN_MOTION_DOT,MEAN_MOTION_DDOT,TLE_LINE0,TLE_LINE1,TLE_LINE2,SEMIMAJOR_AXIS,PERIOD,APOGEE,PERIGEE,DECAYED
52355.0,STARLINK-3877,PAYLOAD,2023-04-06 23:09:54,15.08840865,0.0001408,53.2164,312.3205,80.3652,279.7499,8.5074e-05,1.066e-05,0.0,0 STARLINK-3877,1 52355U 22045AA  23096.96521405  .00001066  00000-0  85074-4 0  9996,2 52355  53.2164 312.3205 0001408  80.3652 279.7499 15.08840865 54591,6917.878,95.437,540.717,538.769,0.0
52355.0,STARLINK-3877,PAYLOAD,2023-04-08 00:36:06,15.08806242,0.0001384,53.2162,307.5628,82.4068,277.7081,0.00106,0.00016607,0.0,0 STARLINK-3877,1 52355U 22045AA  23098.02507520  .00016607  00000-0  10600-2 0  9995,2 52355  53.2162 307.5628 0001384  82.4068 277.7081 15.08806242 54755,6917.984,95.44,540.806,538.891,0.0
52355.0,STARLINK-3877,PAYLOAD,2023-04-08 18:05:19,15.08836049,0.0001111,53.2163,304.2903,81.0344,279.0774,5.8978e-05,6.51e-06,0.0,0 STARLINK-3877,1 52355U 22045AA  23098.75369891  .00000651  00000-0  58978-4 0  9996,2 52355  53.2163 304.2903 0001111  81.0344 279.0774 15.08836049 54860,6917.892,95.438,540.526,538.989,0.0
52355.0,STARLINK-3877,PAYLOAD,2023-04-08 19:40:42,15.08837106,0.0001115,53.2165,303.9929,79.8471,280.2647,7.5006e-05,9.06e-06,0.0,0 STARLINK-3877,1 52355U 22045AA  23098.81993858  .00000906  00000-0  75006-4 0  9993,2 52355  53.2165 303.9929 0001115  79.8471 280.2647 15.08837106 54875,6917.889,95.438,540.526,538.983,0.0
52355.0,STARLINK-3877,PAYLOAD,2023-04-09 19:31:29,15.08841761,9.9e-05,53.2166,299.5317,93.997,266.1135,0.00017238,2.457e-05,0.0,0 STARLINK-3877,1 52355U 22045AA  23099.81353723  .00002457  00000-0  17238-3 0  9990,2 52355  53.2166 299.5317 0000990  93.9970 266.1135 15.08841761 55023,6917.875,95.437,540.425,539.055,0.0
52355.0,STARLINK-3877,PAYLOAD,2023-04-09 21:06:52,15.08844302,0.0001137,53.2166,299.2349,92.2152,267.897,0.00020348,2.952e-05,0.0,0 STARLINK-3877,1 52355U 22045AA  23099.87977638  .00002952  00000-0  20348-3 0  9999,2 52355  53.2166 299.2349 0001137  92.2152 267.8970 15.08844302 55033,6917.867,95.437,540.519,538.946,0.0
52355.0,STARLINK-3877,PAYLOAD,2023-04-10 13:00:44,15.08844139,0.0001246,53.2159,296.2623,92.4671,267.6464,0.00017459,2.492e-05,0.0,0 STARLINK-3877,1 52355U 22045AA  23100.54217701  .00002492  00000-0  17459-3 0  9992,2 52355  53.2159 296.2623 0001246  92.4671 267.6464 15.08844139 55131,6917.868,95.437,540.595,538.871,0.0
52355.0,STARLINK-3877,PAYLOAD,2023-04-10 19:22:16,15.08837007,0.0001244,53.2155,295.0747,91.3036,268.8098,0.00053929,8.305e-05,0.0,0 STARLINK-3877,1 52355U 22045AA  23100.80713994  .00008305  00000-0  53929-3 0  9997,2 52355  53.2155 295.0747 0001244  91.3036 268.8098 15.08837007 55178,6917.89,95.438,540.615,538.894,0.0
52355.0,STARLINK-3877,PAYLOAD,2023-04-11 12:51:31,15.08842407,0.0001341,53.2162,291.8025,86.555,273.5595,4.3008e-05,3.97e-06,0.0,0 STARLINK-3877,1 52355U 22045AA  23101.53577712  .00000397  00000-0  43008-4 0  9995,2 52355  53.2162 291.8025 0001341  86.5550 273.5595 15.08842407 55281,6917.873,95.437,540.666,538.81,0.0
52355.0,STARLINK-3877,PAYLOAD,2023-04-11 19:13:03,15.08843111,0.0001478,53.2162,290.6136,87.1875,272.9286,4.4072e-05,4.14e-06,0.0,0 STARLINK-3877,1 52355U 22045AA  23101.80073660  .00000414  00000-0  44072-4 0  9990,2 52355  53.2162 290.6136 0001478  87.1875 272.9286 15.08843111 55327,6917.871,95.437,540.758,538.713,0.0
52355.0,STARLINK-3877,PAYLOAD,2023-04-12 12:42:18,15.08847165,6.31e-05,53.2177,287.3437,63.8675,296.2382,-0.00018657,-3.256e-05,0.0,0 STARLINK-3877,1 52355U 22045AA  23102.52937563 -.00003256  00000-0 -18657-3 0  9999,2 52355  53.2177 287.3437 0000631  63.8675 296.2382 15.08847165 55430,6917.858,95.437,540.16,539.287,0.0
52355.0,STARLINK-3877,PAYLOAD,2023-04-13 04:36:10,15.08827838,0.0002295,53.2126,284.3688,88.7121,271.4134,-3.7485e-05,-8.85e-06,0.0,0 STARLINK-3877,1 52355U 22045AA  23103.19178665 -.00000885  00000-0 -37485-4 0  9999,2 52355  53.2126 284.3688 0002295  88.7121 271.4134 15.08827838 55535,6917.918,95.438,541.37,538.195,0.0
52355.0,STARLINK-3877,PAYLOAD,2023-04-13 18:54:37,15.08845311,9.4e-05,53.2167,281.6943,89.5383,270.5717,0.0001979,2.864e-05,0.0,0 STARLINK-3877,1 52355U 22045AA  23103.78793762  .00002864  00000-0  19790-3 0  9990,2 52355  53.2167 281.6943 0000940  89.5383 270.5717 15.08845311 55621,6917.864,95.437,540.379,539.079,0.0
52355.0,STARLINK-3877,PAYLOAD,2023-04-14 04:26:56,15.08844204,0.0001226,53.2177,279.9125,99.5959,260.5172,0.00015372,2.16e-05,0.0,0 STARLINK-3877,1 52355U 22045AA  23104.18537780  .00002160  00000-0  15372-3 0  9992,2 52355  53.2177 279.9125 0001226  99.5959 260.5172 15.08844204 55682,6917.868,95.437,540.581,538.884,0.0
52355.0,STARLINK-3877,PAYLOAD,2023-04-14 21:56:10,15.08860705,9.85e-05,53.2153,276.6376,91.6004,268.5101,0.00032634,4.913e-05,0.0,0 STARLINK-3877,1 52355U 22045AA  23104.91400762  .00004913  00000-0  32634-3 0  9990,2 52355  53.2153 276.6376 0000985  91.6004 268.5101 15.08860705 55799,6917.817,95.436,540.364,539.001,0.0
52355.0,STARLINK-3877,PAYLOAD,2023-04-15 04:17:43,15.08839637,3.26e-05,53.2147,275.45,170.1815,189.9184,-0.00014099,-2.531e-05,0.0,0 STARLINK-3877,1 52355U 22045AA  23105.17897454 -.00002531  00000-0 -14099-3 0  9998,2 52355  53.2147 275.4500 0000326 170.1815 189.9184 15.08839637 55832,6917.881,95.438,539.972,539.521,0.0
52355.0,STARLINK-3877,PAYLOAD,2023-04-15 20:11:34,15.08848833,0.0001265,53.2164,272.4769,104.5579,255.5554,0.00021689,3.166e-05,0.0,0 STARLINK-3877,1 52355U 22045AA  23105.84137560  .00003166  00000-0  21689-3 0  9993,2 52355  53.2164 272.4769 0001265 104.5579 255.5554 15.08848833 55936,6917.853,95.437,540.593,538.843,0.0
52355.0,STARLINK-3877,PAYLOAD,2023-04-16 20:02:22,15.0884192,0.0001075,53.2156,268.0131,78.6709,281.4404,0.00014338,1.995e-05,0.0,0 STARLINK-3877,1 52355U 22045AA  23106.83498181  .00001995  00000-0  14338-3 0  9993,2 52355  53.2156 268.0131 0001075  78.6709 281.4404 15.08841920 56085,6917.875,95.437,540.483,538.996,0.0
52355.0,STARLINK-3877,PAYLOAD,2023-04-17 03:59:18,15.08838706,0.0001111,53.2157,266.5269,73.8232,286.2883,9.9031e-05,1.289e-05,0.0,0 STARLINK-3877,1 52355U 22045AA  23107.16618448  .00001289  00000-0  99031-4 0  9990,2 52355  53.2157 266.5269 0001111  73.8232 286.2883 15.08838706 56138,6917.884,95.438,540.518,538.981,0.0
52355.0,STARLINK-3877,PAYLOAD,2023-04-17 16:42:23,15.08845864,0.0001035,53.2156,264.147,71.1098,289.0007,0.00030466,4.565e-05,0.0,0 STARLINK-3877,1 52355U 22045AA  23107.69610287  .00004565  00000-0  30466-3 0  9997,2 52355  53.2156 264.1470 0001035  71.1098 289.0007 15.08845864 56212,6917.862,95.437,540.443,539.011,0.0
52355.0,STARLINK-3877,PAYLOAD,2023-04-18 10:11:38,15.08838951,0.0001479,53.2161,260.8779,65.4034,294.7112,9.9956e-05,1.303e-05,0.0,0 STARLINK-3877,1 52355U 22045AA  23108.42474656  .00001303  00000-0  99956-4 0  9994,2 52355  53.2161 260.8779 0001479  65.4034 294.7112 15.08838951 56322,6917.884,95.438,540.772,538.725,0.0
52355.0,STARLINK-3877,PAYLOAD,2023-04-18 16:33:10,15.08845707,0.0001238,53.2163,259.6872,73.419,286.6938,0.000183,2.626e-05,0.0,0 STARLINK-3877,1 52355U 22045AA  23108.68970324  .00002626  00000-0  18300-3 0  9997,2 52355  53.2163 259.6872 0001238  73.4190 286.6938 15.08845707 56366,6917.863,95.437,540.584,538.872,0.0
52355.0,STARLINK-3877,PAYLOAD,2023-04-19 10:02:25,15.08840287,0.0001475,53.2145,256.417,61.3717,298.7423,0.00010439,1.374e-05,0.0,0 STARLINK-3877,1 52355U 22045AA  23109.41834606  .00001374  00000-0  10439-3 0  9995,2 52355  53.2145 256.4170 0001475  61.3717 298.7423 15.08840287 56479,6917.88,95.438,540.765,538.724,0.0
52355.0,STARLINK-3877,PAYLOAD,2023-04-19 16:23:57,15.08847866,0.0001403,53.2153,255.2268,71.9277,288.1867,0.00030401,4.555e-05,0.0,0 STARLINK-3877,1 52355U 22045AA  23109.68330370  .00004555  00000-0  30401-3 0  9998,2 52355  53.2153 255.2268 0001403  71.9277 288.1867 15.08847866 56512,6917.856,95.437,540.692,538.751,0.0
52355.0,STARLINK-3877,PAYLOAD,2023-04-19 21:10:06,15.088617,0.0001314,53.2167,254.3334,72.1306,287.9829,0.00063034,9.764e-05,0.0,0 STARLINK-3877,1 52355U 22045AA  23109.88201843  .00009764  00000-0  63034-3 0  9997,2 52355  53.2167 254.3334 0001314  72.1306 287.9829 15.08861700 56549,6917.814,95.436,540.588,538.77,0.0
52355.0,STARLINK-3877,PAYLOAD,2023-04-20 09:53:12,15.08833954,0.000119,53.2164,251.9544,92.5873,267.5256,-8.0913e-06,-4.17e-06,0.0,0 STARLINK-3877,1 52355U 22045AA  23110.41194589 -.00000417  00000-0 -80913-5 0  9991,2 52355  53.2164 251.9544 0001190  92.5873 267.5256 15.08833954 56626,6917.899,95.438,540.587,538.941,0.0
52355.0,STARLINK-3877,PAYLOAD,2023-04-20 21:00:53,15.08859163,0.0001165,53.2165,249.8733,102.5782,257.534,0.0013441,0.00021179,0.0,0 STARLINK-3877,1 52355U 22045AA  23110.87562321  .00021179  00000-0  13441-2 0  9999,2 52355  53.2165 249.8733 0001165 102.5782 257.5340 15.08859163 56696,6917.822,95.436,540.493,538.881,0.0
52355.0,STARLINK-3877,PAYLOAD,2023-04-21 01:47:03,15.08842623,7.12e-05,53.2165,248.9818,100.4896,259.6177,0.00053093,8.173e-05,0.0,0 STARLINK-3877,1 52355U 22045AA  23111.07434533  .00008173  00000-0  53093-3 0  9992,2 52355  53.2165 248.9818 0000712 100.4896 259.6177 15.08842623 56728,6917.872,95.437,540.23,539.245,0.0
52355.0,STARLINK-3877,PAYLOAD,2023-04-21 16:05:31,15.08860408,7.57e-05,53.2163,246.3061,94.0574,266.0504,0.0016065,0.00025386,0.0,0 STARLINK-3877,1 52355U 22045AA  23111.67050184  .00025386  00000-0  16065-2 0  9996,2 52355  53.2163 246.3061 0000757  94.0574 266.0504 15.08860408 56815,6917.818,95.436,540.207,539.159,0.0
52355.0,STARLINK-3877,PAYLOAD,2023-04-22 01:37:49,15.08857453,7.98e-05,53.2158,244.5239,91.905,268.2033,0.00079876,0.00012453,0.0,0 STARLINK-3877,1 52355U 22045AA  23112.06793917  .00012453  00000-0  79876-3 0  9999,2 52355  53.2158 244.5239 0000798  91.9050 268.2033 15.08857453 56879,6917.827,95.436,540.244,539.14,0.0
